421P/McNaught,e,10.0743,55.3049,259.8378,5.073535,0.0862458,0.67441407,159.1833,02/11.0/2026,2000,g 14.0,4.0
# From MPEC 2025-W75
422P/Christensen,e,39.5799,36.0078,304.7245,6.271523,0.0627545,0.50535140,93.7032,02/11.0/2026,2000,g 11.0,4.0
# From MPEC 2025-W75
423P/Lemmon,e,8.3401,33.2993,81.1643,6.185361,0.0640703,0.12277487,102.2321,02/11.0/2026,2000,g  8.0,4.0
# From MPEC 2025-W75
424P/LaSagra,e,8.6817,51.1950,312.5710,4.421714,0.1060030,0.69004959,165.8688,02/11.0/2026,2000,g 17.0,4.0
# From MPEC 2025-W75
425P/Kowalski,e,16.4072,210.0928,201.0265,6.354117,0.0615349,0.54337719,98.7256,02/11.0/2026,2000,g 12.0,4.0
# From MPEC 2025-W75
426P/PANSTARRS,e,17.7840,280.3956,118.3875,3.186177,0.1733003,0.16084845,153.3566,02/11.0/2026,2000,g 13.5,4.0
# From MPEC 2025-X35
427P/ATLAS,e,11.8650,252.3251,99.6174,3.163551,0.1751628,0.31520068,185.8293,02/11.0/2026,2000,g 14.0,4.0
# From MPEC 2025-W75
428P/Gibbs,e,8.5024,299.3054,36.8747,3.489332,0.1512135,0.51807799,262.4753,02/11.0/2026,2000,g 15.0,4.0
# From MPEC 2025-W75
429P/LINEAR-Hill,e,7.5140,321.9977,75.7530,3.556526,0.1469485,0.49054726,220.5870,02/11.0/2026,2000,g 15.5,4.0
# From MPEC 2025-W75
430P/Scotti,e,4.4762,54.6366,94.4844,3.102566,0.1803526,0.50049059,276.0644,02/11.0/2026,2000,g 16.5,4.0
# From MPEC 2025-W75
431P/Scotti,e,22.3736,202.8284,200.0145,3.477558,0.1519821,0.47709463,221.6918,02/11.0/2026,2000,g 14.0,4.0
# From MPEC 2025-W75
432P/PANSTARRS,e,10.0668,239.1305,105.2267,3.038871,0.1860526,0.24072301,302.8154,02/11.0/2026,2000,g 17.0,4.0
# From MPEC 2025-W75
434P/Tenagra,e,6.3365,288.9091,128.4819,4.137091,0.1171282,0.27399632,183.6661,02/11.0/2026,2000,g 13.0,4.0
# From MPEC 2025-W75
435P/PANSTARRS,e,18.8745,98.5237,244.1752,3.022163,0.1875975,0.31746096,311.6718,02/11.0/2026,2000,g 17.0,4.0
# From MPEC 2025-W75
436P/Garradd,e,20.1995,87.1593,282.7666,5.937042,0.0681317,0.66872479,104.0261,02/11.0/2026,2000,g 14.5,4.0
# From MPEC 2025-W75
437P/Lemmon-PANSTARRS,e,3.6885,245.8424,207.1383,4.570560,0.1008672,0.25489690,128.1444,02/11.0/2026,2000,g 13.0,4.0
# From MPEC 2025-W75
438P/Christensen,e,8.2806,260.1096,58.9461,3.853722,0.1302817,0.41409109,279.0904,02/11.0/2026,2000,g 14.5,4.0
# From MPEC 2025-W75
439P/LINEAR,e,7.1117,56.4009,342.1417,3.492296,0.1510211,0.46884568,246.1331,02/11.0/2026,2000,g 13.5,4.0
# From MPEC 2025-W75
440P/Kobayashi,e,12.3558,328.7886,183.3187,8.582092,0.0392026,0.76103796,55.4033,02/11.0/2026,2000,g 15.5,4.0
# From MPEC 2025-W75
441P/PANSTARRS,e,2.5746,143.5870,178.8356,4.130836,0.1173943,0.19438363,18.1718,02/11.0/2026,2000,g 13.5,4.0
# From MPEC 2025-W75
442P/McNaught,e,6.0589,31.8730,310.6024,4.949721,0.0895021,0.53276804,114.0209,02/11.0/2026,2000,g 13.5,4.0
# From MPEC 2025-W75
443P/PANSTARRS-Christensen,e,19.8882,108.9322,145.0242,4.124246,0.1176758,0.28278817,143.7071,02/11.0/2026,2000,g 13.5,4.0
# From MPEC 2025-W75
444P/WISE-PANSTARRS,e,22.6756,88.1976,172.7706,3.480273,0.1518043,0.55442028,201.4155,02/11.0/2026,2000,g 17.0,4.0
# From MPEC 2025-W75
445P/Lemmon-PANSTARRS,e,1.0894,126.5989,213.0752,4.043537,0.1212166,0.41466186,154.5636,02/11.0/2026,2000,g 15.0,4.0
# From MPEC 2025-W75
446P/McNaught,e,16.6524,336.2872,344.5919,4.556542,0.1013330,0.64704599,137.3121,02/11.0/2026,2000,g 16.5,4.0
# From MPEC 2025-W75
447P/Sheppard-Tholen,e,7.4418,302.6390,97.3191,5.622232,0.0739334,0.17689275,94.4084,02/11.0/2026,2000,g 12.0,4.0
# From MPEC 2025-W75
448P/PANSTARRS,e,12.1425,161.7474,218.8059,3.637136,0.1420904,0.41785265,178.2250,02/11.0/2026,2000,g 16.0,4.0
# From MPEC 2025-W75
449P/Leonard,e,15.4676,242.5161,176.7844,3.599516,0.1443238,0.47966604,274.6639,02/11.0/2026,2000,g 16.0,4.0
# From MPEC 2026-A90
450P/LONEOS,e,10.9910,123.8173,27.5455,7.797531,0.0452656,0.30855057,342.1473,02/11.0/2026,2000,g  6.5,4.0
# From MPEC 2025-W75
451P/Christensen,e,26.4878,300.8614,186.8317,6.352872,0.0615529,0.55930862,72.0665,02/11.0/2026,2000,g 13.5,4.0
# From MPEC 2025-W75
452P/Sheppard-Jewitt,e,6.4225,123.6596,37.1366,7.314868,0.0498189,0.42882368,50.8961,02/11.0/2026,2000,g  9.0,4.0
# From MPEC 2025-W75
453P/WISE-Lemmon,e,27.0519,42.8827,70.9339,5.469254,0.0770570,0.58316850,82.8743,02/11.0/2026,2000,g 14.0,4.0
# From MPEC 2025-W75
454P/PANSTARRS,e,19.8050,54.5865,20.2343,4.212593,0.1139934,0.36120770,147.6603,02/11.0/2026,2000,g 14.0,4.0
# From MPEC 2025-W75
455P/PANSTARRS,e,14.1336,146.1737,237.5344,3.153994,0.1759595,0.30417955,190.4659,02/11.0/2026,2000,g 17.0,4.0
# From MPEC 2025-W75
456P/PANSTARRS,e,16.9650,243.1368,232.9736,3.168498,0.1747527,0.11557566,52.8236,02/11.0/2026,2000,g 13.5,4.0
# From MPEC 2025-W75
457P/Lemmon-PANSTARRS,e,5.2257,175.9622,104.3021,2.645117,0.2291062,0.11824582,123.7332,02/11.0/2026,2000,g 15.5,4.0
# From MPEC 2025-W75
458P/Jahn,e,13.6217,1.5432,104.9877,3.859747,0.1299768,0.31722350,155.8374,02/11.0/2026,2000,g 14.0,4.0
# From MPEC 2025-W75
459P/Catalina,e,7.1726,256.9843,205.2429,3.240531,0.1689584,0.57785739,183.3390,02/11.0/2026,2000,g 15.5,4.0
# From MPEC 2025-W75
460P/PANSTARRS,e,18.9002,180.5168,351.9284,3.027778,0.1870760,0.66431418,318.3585,02/11.0/2026,2000,g 21.0,4.0
# From MPEC 2025-W75
461P/WISE,e,18.3944,194.3704,174.8227,3.144863,0.1767264,0.56939285,281.1570,02/11.0/2026,2000,g 18.5,4.0
# From MPEC 2025-W75
462P/LONEOS-PANSTARRS,e,7.0632,322.6110,4.1027,4.854630,0.0921446,0.57896250,118.9334,02/11.0/2026,2000,g 17.0,4.0
# From MPEC 2025-W75
463P/NEOWISE,e,29.2944,283.2153,216.3474,2.973915,0.1921814,0.82602014,201.5800,02/11.0/2026,2000,g 18.0,4.0
# From MPEC 2025-W75
464P/PANSTARRS,e,21.6736,309.5781,267.4749,4.682727,0.0972648,0.28080416,105.0147,02/11.0/2026,2000,g 10.5,4.0
# From MPEC 2025-W75
465P/Hill,e,25.8625,217.9201,140.9562,6.002096,0.0670270,0.61290752,67.6647,02/11.0/2026,2000,g 12.5,4.0
# From MPEC 2025-W75
466P/PANSTARRS,e,16.7904,114.9991,196.6849,3.936691,0.1261848,0.47892039,131.0322,02/11.0/2026,2000,g 14.0,4.0
# From MPEC 2025-W75
467P/LINEAR-Grauer,e,2.4795,43.2617,267.0815,5.823513,0.0701337,0.05416931,82.6007,02/11.0/2026,2000,g  9.0,4.0
# From MPEC 2025-W75
468P/SidingSpring,e,50.4565,356.1322,322.5432,7.113151,0.0519531,0.44465497,42.2491,02/11.0/2026,2000,g 11.5,4.0
# From MPEC 2025-W75
469P/PANSTARRS,e,20.1705,178.9639,43.4942,4.344090,0.1088569,0.30825397,7.0335,02/11.0/2026,2000,g 13.5,4.0
# From MPEC 2025-W75
470P/PANSTARRS,e,8.8440,246.1574,151.6326,4.461219,0.1045981,0.38919961,82.3843,02/11.0/2026,2000,g 15.5,4.0
# From MPEC 2025-W75
471P/LINEAR-Lemmon,e,4.7968,283.3099,94.7068,5.685900,0.0726951,0.62753294,57.0246,02/11.0/2026,2000,g 12.0,4.0
# From MPEC 2025-W75
472P/NEAT-LINEAR,e,10.8279,205.7954,218.7867,7.758466,0.0456079,0.56358730,26.3393,02/11.0/2026,2000,g 10.5,4.0
# From MPEC 2025-W75
473P/NEAT,e,56.8794,22.1915,42.9503,7.973864,0.0437724,0.82354911,31.3326,02/11.0/2026,2000,g 13.5,4.0
# From MPEC 2025-W75
474P/Hogan,e,1.0968,26.7524,11.2695,3.131081,0.1778945,0.18782554,167.4995,02/11.0/2026,2000,g 15.5,4.0
# From MPEC 2025-W75
475P/Spacewatch-LINEAR,e,14.5243,147.3502,40.4346,7.321878,0.0497474,0.44312383,30.8013,02/11.0/2026,2000,g 11.0,4.0
# From MPEC 2025-W75
476P/PANSTARRS,e,19.0052,57.0493,46.7539,4.774851,0.0944636,0.34576210,45.5761,02/11.0/2026,2000,g 12.5,4.0
# From MPEC 2025-W75
477P/PANSTARRS,e,8.9140,59.1374,305.8486,3.001371,0.1895504,0.41760433,147.3937,02/11.0/2026,2000,g 14.5,4.0
# From MPEC 2025-W75
478P/ATLAS,e,12.5254,127.2580,13.2823,3.648815,0.1414088,0.34382820,91.8708,02/11.0/2026,2000,g 13.5,4.0
# From MPEC 2025-W75
479P/Elenin,e,15.3986,295.8285,263.4952,5.622717,0.0739239,0.77902512,47.8035,02/11.0/2026,2000,g 15.0,4.0
# From MPEC 2025-W75
480P/PANSTARRS,e,13.7148,229.9856,214.4902,4.612360,0.0994991,0.24616501,101.8854,02/11.0/2026,2000,g 12.0,4.0
# From MPEC 2025-W75
481P/Lemmon-PANSTARRS,e,6.0826,93.5510,356.8623,4.683354,0.0972453,0.34335028,92.1454,02/11.0/2026,2000,g 13.5,4.0
# From MPEC 2025-W75
482P/PANSTARRS,e,24.4897,126.0705,339.7558,3.757550,0.1353153,0.49231731,133.2478,02/11.0/2026,2000,g 13.5,4.0
# From MPEC 2025-W75
483P/PANSTARRS,e,14.1750,198.9019,49.7544,3.194453,0.1726272,0.22153991,249.5500,02/11.0/2026,2000,g 16.5,4.0
# From MPC186638
483P-A/PANSTARRS,e,14.1750,198.9020,49.7546,3.194453,0.1726272,0.22154029,249.5496,02/11.0/2026,2000,g 13.5,4.0
# From MPC185666
483P-B/PANSTARRS,e,14.1758,198.9014,49.7455,3.194369,0.1726341,0.22148374,249.5860,02/11.0/2026,2000,g 17.0,4.0
# From MPEC 2025-W75
484P/Spacewatch,e,14.4743,265.3640,240.8456,3.755915,0.1354037,0.43318883,257.2955,02/11.0/2026,2000,g 16.0,4.0
# From MPEC 2025-W75
485P/Sheppard-Tholen,e,10.0159,261.6461,196.1614,6.853582,0.0549323,0.41713614,49.4657,02/11.0/2026,2000,g 13.0,4.0
# From MPEC 2025-YF1
486P/Leonard,e,2.2097,219.0231,93.9343,3.626744,0.1427016,0.36334971,44.6946,02/11.0/2026,2000,g 14.5,4.0
# From MPEC 2025-W75
487P/SidingSpring,e,39.3663,49.2004,0.8370,5.159974,0.0840878,0.64828407,40.2338,02/11.0/2026,2000,g 13.5,4.0
# From MPEC 2025-W75
488P/NEAT-PANSTARRS,e,11.5231,323.2474,2.9258,3.763866,0.1349749,0.55150911,85.1736,02/11.0/2026,2000,g 16.5,4.0
# From MPEC 2024-Q14
489P/Denning,e,4.0260,20.5973,109.4185,4.424341,0.1059086,0.64710110,7.2757,02/11.0/2026,2000,g 15.5,4.0
# From MPEC 2025-W75
490P/ATLAS,e,12.2682,307.5815,332.6015,3.030993,0.1867784,0.64678541,93.5706,02/11.0/2026,2000,g 21.0,4.0
# From MPEC 2025-W75
491P/Spacewatch-PANSTARRS,e,9.3671,311.6835,298.8285,5.012537,0.0878249,0.25871338,45.9588,02/11.0/2026,2000,g  9.5,4.0
# From MPEC 2025-W75
492P/LINEAR,e,11.4009,11.3052,40.9794,5.757532,0.0713427,0.69045318,40.7109,02/11.0/2026,2000,g 15.0,4.0
# From MPEC 2026-A90
493P/LONEOS,e,24.1072,1.0715,83.2444,7.180076,0.0512284,0.46756310,1.4275,02/11.0/2026,2000,g 12.0,2.0
# From MPEC 2025-W75
494P/PANSTARRS,e,7.7896,245.0440,48.8897,3.794390,0.1333494,0.35660019,82.8245,02/11.0/2026,2000,g 16.0,4.0
# From MPEC 2026-A24
495P/Christensen,e,26.3572,291.6124,141.3351,4.766092,0.0947241,0.27408799,10.5769,02/11.0/2026,2000,g 11.5,4.0
# From MPEC 2025-W75
